STARLINK-33946
1 64034U 25102N   26089.99134465  .00825428  00000+0  61634-1 0  9992
2 64034  70.0015  60.7226 0005017 175.4785 184.6422 14.99979495 49191
